start=new Date('2022-04-02T00:00:00.000Z').valueOf();
sats=[{"REF_FRAME":"TEME","APOAPSIS":"540.989","RCS_SIZE":"LARGE","ELEMENT_SET_NO":"999","DECAY_DATE":null,"PERIAPSIS":"538.428","MEAN_MOTION_DOT":"-0.00046016","EPOCH":"2022-04-01T22:00:00.999936","RA_OF_ASC_NODE":"223.5346","REV_AT_EPOCH":"1906","ECCENTRICITY":"0.00018510","EPHEMERIS_TYPE":"0","ARG_OF_PERICENTER":"46.4349","MEAN_MOTION_DDOT":"0.0000000000000","SITE":"AFWTR","GP_ID":"200238456","OBJECT_NAME":"STARLINK-3245","CLASSIFICATION_TYPE":"U","MEAN_ANOMALY":"67.6795","SEMIMAJOR_AXIS":"6917.843","TLE_LINE2":"2 50170  53.2141 223.5346 0001851  46.4349  67.6795 15.08852085 19069","LAUNCH_DATE":"2021-12-18","TLE_LINE1":"1 50170U 21125Q   22091.91667824 -.00046016  00000-0 -28907-2 0  9998","MEAN_MOTION":"15.08852085","CENTER_NAME":"EARTH","TIME_SYSTEM":"UTC","PERIOD":"95.437","OBJECT_TYPE":"PAYLOAD","FILE":"3383607","OBJECT_ID":"2021-125Q","NORAD_CAT_ID":"50170","COUNTRY_CODE":"US","BSTAR":"-0.00289070000000","MEAN_ELEMENT_THEORY":"SGP4","INCLINATION":"53.2141"},{"MEAN_MOTION_DOT":"-0.00065441","PERIAPSIS":"538.483","REV_AT_EPOCH":"1906","EPOCH":"2022-04-01T22:00:00.999936","RA_OF_ASC_NODE":"223.5351","ARG_OF_PERICENTER":"46.5720","EPHEMERIS_TYPE":"0","ECCENTRICITY":"0.00017330","MEAN_MOTION_DDOT":"0.0000000000000","SITE":"AFWTR","GP_ID":"200241416","OBJECT_NAME":"STARLINK-3286","REF_FRAME":"TEME","APOAPSIS":"540.881","ELEMENT_SET_NO":"999","RCS_SIZE":"LARGE","DECAY_DATE":null,"PERIOD":"95.436","FILE":"3383738","OBJECT_TYPE":"PAYLOAD","NORAD_CAT_ID":"50171","OBJECT_ID":"2021-125R","BSTAR":"-0.00412890000000","COUNTRY_CODE":"US","MEAN_ELEMENT_THEORY":"SGP4","INCLINATION":"53.2150","CLASSIFICATION_TYPE":"U","MEAN_ANOMALY":"347.5582","SEMIMAJOR_AXIS":"6917.817","TLE_LINE2":"2 50171  53.2150 223.5351 0001733  46.5720 347.5582 15.08860714 19061","TLE_LINE1":"1 50171U 21125R   22091.91667824 -.00065441  00000-0 -41289-2 0  9990","LAUNCH_DATE":"2021-12-18","TIME_SYSTEM":"UTC","CENTER_NAME":"EARTH","MEAN_MOTION":"15.08860714"},{"REF_FRAME":"TEME","APOAPSIS":"541.282","DECAY_DATE":null,"ELEMENT_SET_NO":"999","RCS_SIZE":"LARGE","MEAN_MOTION_DOT":"0.00008289","PERIAPSIS":"538.378","ARG_OF_PERICENTER":"34.4746","EPHEMERIS_TYPE":"0","ECCENTRICITY":"0.00020990","REV_AT_EPOCH":"1906","RA_OF_ASC_NODE":"223.5352","EPOCH":"2022-04-01T22:00:00.999936","SITE":"AFWTR","MEAN_MOTION_DDOT":"0.0000000000000","GP_ID":"200241419","OBJECT_NAME":"STARLINK-3287","MEAN_ANOMALY":"119.7353","CLASSIFICATION_TYPE":"U","SEMIMAJOR_AXIS":"6917.965","TLE_LINE2":"2 50172  53.2161 223.5352 0002099  34.4746 119.7353 15.08812446 19069","TIME_SYSTEM":"UTC","MEAN_MOTION":"15.08812446","CENTER_NAME":"EARTH","TLE_LINE1":"1 50172U 21125S   22091.91667824  .00008289  00000-0  53866-3 0  9991","LAUNCH_DATE":"2021-12-18","FILE":"3383738","OBJECT_TYPE":"PAYLOAD","PERIOD":"95.439","OBJECT_ID":"2021-125S","NORAD_CAT_ID":"50172","MEAN_ELEMENT_THEORY":"SGP4","BSTAR":"0.00053866000000","COUNTRY_CODE":"US","INCLINATION":"53.2161"},{"RCS_SIZE":"LARGE","ELEMENT_SET_NO":"999","DECAY_DATE":null,"REF_FRAME":"TEME","APOAPSIS":"463.165","MEAN_MOTION_DDOT":"0.0000000000000","SITE":"AFWTR","OBJECT_NAME":"STARLINK-3289","GP_ID":"200241733","PERIAPSIS":"455.893","MEAN_MOTION_DOT":"-0.00303346","RA_OF_ASC_NODE":"217.4267","EPOCH":"2022-04-01T22:00:00.999936","REV_AT_EPOCH":"1654","ECCENTRICITY":"0.00053180","EPHEMERIS_TYPE":"0","ARG_OF_PERICENTER":"272.6863","TLE_LINE2":"2 50173  53.2171 217.4267 0005318 272.6863 184.7819 15.35469319 16547","LAUNCH_DATE":"2021-12-18","TLE_LINE1":"1 50173U 21125T   22091.91667824 -.00303346  00000-0 -90124-2 0  9993","MEAN_MOTION":"15.35469319","CENTER_NAME":"EARTH","TIME_SYSTEM":"UTC","CLASSIFICATION_TYPE":"U","MEAN_ANOMALY":"184.7819","SEMIMAJOR_AXIS":"6837.664","COUNTRY_CODE":"US","BSTAR":"-0.00901240000000","MEAN_ELEMENT_THEORY":"SGP4","INCLINATION":"53.2171","PERIOD":"93.782","OBJECT_TYPE":"PAYLOAD","FILE":"3383722","NORAD_CAT_ID":"50173","OBJECT_ID":"2021-125T"},{"APOAPSIS":"541.072","REF_FRAME":"TEME","RCS_SIZE":"LARGE","ELEMENT_SET_NO":"999","DECAY_DATE":null,"EPOCH":"2022-04-01T22:00:00.999936","RA_OF_ASC_NODE":"223.5232","REV_AT_EPOCH":"359","ECCENTRICITY":"0.00019700","EPHEMERIS_TYPE":"0","ARG_OF_PERICENTER":"41.5381","PERIAPSIS":"538.347","MEAN_MOTION_DOT":"-0.00048096","OBJECT_NAME":"STARLINK-3292","GP_ID":"200265447","MEAN_MOTION_DDOT":"0.0000000000000","SITE":"AFWTR","SEMIMAJOR_AXIS":"6917.844","CLASSIFICATION_TYPE":"U","MEAN_ANOMALY":"172.5758","LAUNCH_DATE":"2021-12-18","TLE_LINE1":"1 50174U 21125U   22091.91667824 -.00048096  00000-0 -30231-2 0  9995","MEAN_MOTION":"15.08851743","CENTER_NAME":"EARTH","TIME_SYSTEM":"UTC","TLE_LINE2":"2 50174  53.2186 223.5232 0001970  41.5381 172.5758 15.08851743  3596","NORAD_CAT_ID":"50174","OBJECT_ID":"2021-125U","PERIOD":"95.437","OBJECT_TYPE":"PAYLOAD","FILE":"3383778","INCLINATION":"53.2186","BSTAR":"-0.00302310000000","COUNTRY_CODE":"US","MEAN_ELEMENT_THEORY":"SGP4"},{"APOAPSIS":"540.858","REF_FRAME":"TEME","DECAY_DATE":null,"ELEMENT_SET_NO":"999","RCS_SIZE":"LARGE","ARG_OF_PERICENTER":"46.6396","EPHEMERIS_TYPE":"0","ECCENTRICITY":"0.00016490","REV_AT_EPOCH":"1906","EPOCH":"2022-04-01T22:00:00.999936","RA_OF_ASC_NODE":"223.5339","MEAN_MOTION_DOT":"-0.00041929","PERIAPSIS":"538.577","GP_ID":"200241413","OBJECT_NAME":"STARLINK-3291","SITE":"AFWTR","MEAN_MOTION_DDOT":"0.0000000000000","SEMIMAJOR_AXIS":"6917.852","MEAN_ANOMALY":"47.4673","CLASSIFICATION_TYPE":"U","TIME_SYSTEM":"UTC","CENTER_NAME":"EARTH","MEAN_MOTION":"15.08849140","TLE_LINE1":"1 50175U 21125V   22091.91667824 -.00041929  00000-0 -26311-2 0  9998","LAUNCH_DATE":"2021-12-18","TLE_LINE2":"2 50175  53.2133 223.5339 0001649  46.6396  47.4673 15.08849140 19065","NORAD_CAT_ID":"50175","OBJECT_ID":"2021-125V","FILE":"3383738","OBJECT_TYPE":"PAYLOAD","PERIOD":"95.437","INCLINATION":"53.2133","MEAN_ELEMENT_THEORY":"SGP4","COUNTRY_CODE":"US","BSTAR":"-0.00263110000000"},{"SEMIMAJOR_AXIS":"6917.859","CLASSIFICATION_TYPE":"U","MEAN_ANOMALY":"160.6833","LAUNCH_DATE":"2021-12-18","TLE_LINE1":"1 50176U 21125W   22091.91667824 -.00046936  00000-0 -29496-2 0  9999","MEAN_MOTION":"15.08847109","CENTER_NAME":"EARTH","TIME_SYSTEM":"UTC","TLE_LINE2":"2 50176  53.2185 223.5233 0002193  33.4640 160.6833 15.08847109  3597","NORAD_CAT_ID":"50176","OBJECT_ID":"2021-125W","PERIOD":"95.437","OBJECT_TYPE":"PAYLOAD","FILE":"3383778","INCLINATION":"53.2185","BSTAR":"-0.00294960000000","COUNTRY_CODE":"US","MEAN_ELEMENT_THEORY":"SGP4","APOAPSIS":"541.241","REF_FRAME":"TEME","RCS_SIZE":"LARGE","ELEMENT_SET_NO":"999","DECAY_DATE":null,"EPOCH":"2022-04-01T22:00:00.999936","RA_OF_ASC_NODE":"223.5233","REV_AT_EPOCH":"359","EPHEMERIS_TYPE":"0","ECCENTRICITY":"0.00021930","ARG_OF_PERICENTER":"33.4640","MEAN_MOTION_DOT":"-0.00046936","PERIAPSIS":"538.207","OBJECT_NAME":"STARLINK-3293","GP_ID":"200266442","MEAN_MOTION_DDOT":"0.0000000000000","SITE":"AFWTR"},{"MEAN_MOTION_DDOT":"0.0000000000000","SITE":"AFWTR","OBJECT_NAME":"STARLINK-3282","GP_ID":"200241386","MEAN_MOTION_DOT":"-0.00065536","PERIAPSIS":"538.295","RA_OF_ASC_NODE":"223.5353","EPOCH":"2022-04-01T22:00:00.999936","REV_AT_EPOCH":"1906","ECCENTRICITY":"0.00019960","EPHEMERIS_TYPE":"0","ARG_OF_PERICENTER":"35.2916","RCS_SIZE":"LARGE","ELEMENT_SET_NO":"999","DECAY_DATE":null,"REF_FRAME":"TEME","APOAPSIS":"541.057","BSTAR":"-0.00413470000000","COUNTRY_CODE":"US","MEAN_ELEMENT_THEORY":"SGP4","INCLINATION":"53.2160","PERIOD":"95.436","OBJECT_TYPE":"PAYLOAD","FILE":"3383722","NORAD_CAT_ID":"50177","OBJECT_ID":"2021-125X","TLE_LINE2":"2 50177  53.2160 223.5353 0001996  35.2916  98.7926 15.08862760 19063","LAUNCH_DATE":"2021-12-18","TLE_LINE1":"1 50177U 21125X   22091.91667824 -.00065536  00000-0 -41347-2 0  9996","CENTER_NAME":"EARTH","MEAN_MOTION":"15.08862760","TIME_SYSTEM":"UTC","CLASSIFICATION_TYPE":"U","MEAN_ANOMALY":"98.7926","SEMIMAJOR_AXIS":"6917.811"},{"PERIAPSIS":"538.372","MEAN_MOTION_DOT":"-0.00066505","ARG_OF_PERICENTER":"44.1906","EPHEMERIS_TYPE":"0","ECCENTRICITY":"0.00018670","REV_AT_EPOCH":"1905","RA_OF_ASC_NODE":"223.5358","EPOCH":"2022-04-01T22:00:00.999936","SITE":"AFWTR","MEAN_MOTION_DDOT":"0.0000000000000","GP_ID":"200241391","OBJECT_NAME":"STARLINK-3284","REF_FRAME":"TEME","APOAPSIS":"540.955","DECAY_DATE":null,"ELEMENT_SET_NO":"999","RCS_SIZE":"LARGE","FILE":"3383722","OBJECT_TYPE":"PAYLOAD","PERIOD":"95.436","NORAD_CAT_ID":"50178","OBJECT_ID":"2021-125Y","MEAN_ELEMENT_THEORY":"SGP4","BSTAR":"-0.00419620000000","COUNTRY_CODE":"US","INCLINATION":"53.2153","MEAN_ANOMALY":"309.9132","CLASSIFICATION_TYPE":"U","SEMIMAJOR_AXIS":"6917.798","TLE_LINE2":"2 50178  53.2153 223.5358 0001867  44.1906 309.9132 15.08866927 19050","TIME_SYSTEM":"UTC","MEAN_MOTION":"15.08866927","CENTER_NAME":"EARTH","TLE_LINE1":"1 50178U 21125Y   22091.91667824 -.00066505  00000-0 -41962-2 0  9997","LAUNCH_DATE":"2021-12-18"},{"SEMIMAJOR_AXIS":"6917.809","CLASSIFICATION_TYPE":"U","MEAN_ANOMALY":"135.9331","LAUNCH_DATE":"2021-12-18","TLE_LINE1":"1 50179U 21125Z   22091.91667824 -.00070596  00000-0 -44584-2 0  9996","MEAN_MOTION":"15.08863328","CENTER_NAME":"EARTH","TIME_SYSTEM":"UTC","TLE_LINE2":"2 50179  53.2178 223.5230 0002017  38.2003 135.9331 15.08863328 19068","NORAD_CAT_ID":"50179","OBJECT_ID":"2021-125Z","PERIOD":"95.436","OBJECT_TYPE":"PAYLOAD","FILE":"3383722","INCLINATION":"53.2178","BSTAR":"-0.00445840000000","COUNTRY_CODE":"US","MEAN_ELEMENT_THEORY":"SGP4","APOAPSIS":"541.069","REF_FRAME":"TEME","RCS_SIZE":"LARGE","ELEMENT_SET_NO":"999","DECAY_DATE":null,"RA_OF_ASC_NODE":"223.5230","EPOCH":"2022-04-01T22:00:00.999936","REV_AT_EPOCH":"1906","ECCENTRICITY":"0.00020170","EPHEMERIS_TYPE":"0","ARG_OF_PERICENTER":"38.2003","MEAN_MOTION_DOT":"-0.00070596","PERIAPSIS":"538.279","GP_ID":"200241732","OBJECT_NAME":"STARLINK-3283","MEAN_MOTION_DDOT":"0.0000000000000","SITE":"AFWTR"}];
